NORAD_CAT_ID,OBJECT_NAME,OBJECT_TYPE,EPOCH,MEAN_MOTION,ECCENTRICITY,INCLINATION,RA_OF_ASC_NODE,ARG_OF_PERICENTER,MEAN_ANOMALY,BSTAR,MEAN_MOTION_DOT,MEAN_MOTION_DDOT,TLE_LINE0,TLE_LINE1,TLE_LINE2,SEMIMAJOR_AXIS,PERIOD,APOGEE,PERIGEE,DECAYED
49178.0,STARLINK-3086,PAYLOAD,2022-07-31 04:16:41,14.98323526,0.0002993,70.0012,16.3628,250.0833,110.0004,-5.8147e-05,-7.87e-06,0.0,0 STARLINK-3086,1 49178U 21082BA  22212.17826275 -.00000787  00000-0 -58147-4 0  9992,2 49178  70.0012  16.3628 0002993 250.0833 110.0004 14.98323526 49788,6950.2130000000025,96.107,574.158,569.998,0.0
49178.0,STARLINK-3086,PAYLOAD,2022-07-31 10:41:14,14.98324606,0.0003203,70.0008,15.6894,249.694,110.3875,-6.083600000000001e-05,-8.19e-06,0.0,0 STARLINK-3086,1 49178U 21082BA  22212.44530187 -.00000819  00000-0 -60836-4 0  9990,2 49178  70.0008  15.6894 0003203 249.6940 110.3875 14.98324606 49822,6950.21,96.107,574.3009999999998,569.8480000000002,0.0
49178.0,STARLINK-3086,PAYLOAD,2022-07-31 17:05:46,14.9832932,0.0002921,70.0013,15.0158,244.3806,115.7052,-1.6662e-05,-2.92e-06,0.0,0 STARLINK-3086,1 49178U 21082BA  22212.71233849 -.00000292  00000-0 -16662-4 0  9998,2 49178  70.0013  15.0158 0002921 244.3806 115.7052 14.98329320 49862,6950.195,96.107,574.09,570.03,0.0
49178.0,STARLINK-3086,PAYLOAD,2022-08-01 09:07:07,14.98326731,0.0003278,70.001,13.3329,250.1797,109.9008,-5.0692e-05,-6.98e-06,0.0,0 STARLINK-3086,1 49178U 21082BA  22213.37994245 -.00000698  00000-0 -50692-4 0  9996,2 49178  70.0010  13.3329 0003278 250.1797 109.9008 14.98326731 49960,6950.203,96.107,574.346,569.79,0.0
49178.0,STARLINK-3086,PAYLOAD,2022-08-02 04:20:43,14.98322714,0.0003299,70.0011,11.3129,249.9731,110.1073,8.4286e-05,9.13e-06,0.0,0 STARLINK-3086,1 49178U 21082BA  22214.18106401  .00000913  00000-0  84286-4 0  9999,2 49178  70.0011  11.3129 0003299 249.9731 110.1073 14.98322714 50082,6950.215,96.107,574.373,569.788,0.0
49178.0,STARLINK-3086,PAYLOAD,2022-08-02 12:21:24,14.98323772,0.0003304,70.0011,10.4715,250.3892,109.691,9.8533e-05,1.083e-05,0.0,0 STARLINK-3086,1 49178U 21082BA  22214.51486484  .00001083  00000-0  98533-4 0  9997,2 49178  70.0011  10.4715 0003304 250.3892 109.6910 14.98323772 50138,6950.212,96.107,574.374,569.781,0.0
49178.0,STARLINK-3086,PAYLOAD,2022-08-03 12:23:25,14.98330272,0.0003293,70.0011,7.9467,250.2025,109.8779,0.00010413,1.15e-05,0.0,0 STARLINK-3086,1 49178U 21082BA  22215.51626345  .00001150  00000-0  10413-3 0  9995,2 49178  70.0011   7.9467 0003293 250.2025 109.8779 14.98330272 50281,6950.191999999999,96.107,574.346,569.768,0.0
49178.0,STARLINK-3086,PAYLOAD,2022-08-03 20:24:05,14.98332059,0.0003291,70.0011,7.105,250.153,109.9275,0.00010512,1.162e-05,0.0,0 STARLINK-3086,1 49178U 21082BA  22215.85006227  .00001162  00000-0  10512-3 0  9996,2 49178  70.0011   7.1050 0003291 250.1530 109.9275 14.98332059 50332,6950.187,96.107,574.339,569.764,0.0
49178.0,STARLINK-3086,PAYLOAD,2022-08-04 12:25:25,14.9833631,0.0003328,70.0011,5.4218,249.8391,110.241,0.000125,1.399e-05,0.0,0 STARLINK-3086,1 49178U 21082BA  22216.51765786  .00001399  00000-0  12500-3 0  9993,2 49178  70.0011   5.4218 0003328 249.8391 110.2410 14.98336310 50431,6950.1730000000025,96.107,574.351,569.725,0.0
49178.0,STARLINK-3086,PAYLOAD,2022-08-04 20:26:05,14.98338455,0.0003316,70.0011,4.5802,249.5309,110.5494,0.00012954,1.453e-05,0.0,0 STARLINK-3086,1 49178U 21082BA  22216.85145518  .00001453  00000-0  12954-3 0  9999,2 49178  70.0011   4.5802 0003316 249.5309 110.5494 14.98338455 50485,6950.167,96.106,574.336,569.727,0.0
49178.0,STARLINK-3086,PAYLOAD,2022-08-05 10:51:17,14.98344012,0.0003324,70.0011,3.0654,249.0371,111.0432,0.00013165,1.479e-05,0.0,0 STARLINK-3086,1 49178U 21082BA  22217.45228811  .00001479  00000-0  13165-3 0  9997,2 49178  70.0011   3.0654 0003324 249.0371 111.0432 14.98344012 50571,6950.15,96.106,574.325,569.7040000000002,0.0
49178.0,STARLINK-3086,PAYLOAD,2022-08-06 10:53:19,14.98334283,0.0003328999999999,70.0017,0.5415,250.4856,109.5944,-1.8508e-05,-3.14e-06,0.0,0 STARLINK-3086,1 49178U 21082BA  22218.45369332 -.00000314  00000-0 -18508-4 0  9998,2 49178  70.0017   0.5415 0003329 250.4856 109.5944 14.98334283 50729,6950.18,96.107,574.3580000000002,569.731,0.0
49178.0,STARLINK-3086,PAYLOAD,2022-08-06 18:53:59,14.98336769,0.0003323,70.0019,359.7,250.6535,109.4265,-7.0602e-06,-1.77e-06,0.0,0 STARLINK-3086,1 49178U 21082BA  22218.78749035 -.00000177  00000-0 -70602-5 0  9997,2 49178  70.0019 359.7000 0003323 250.6535 109.4265 14.98336769 50771,6950.172,96.107,574.347,569.727,0.0
49178.0,STARLINK-3086,PAYLOAD,2022-08-07 12:31:27,14.98336854,0.0003224,70.0014,357.8478,248.3199,111.7617,9.6668e-05,1.061e-05,0.0,0 STARLINK-3086,1 49178U 21082BA  22219.52184442  .00001061  00000-0  96668-4 0  9995,2 49178  70.0014 357.8478 0003224 248.3199 111.7617 14.98336854 50888,6950.172,96.107,574.2769999999998,569.7959999999998,0.0
49178.0,STARLINK-3086,PAYLOAD,2022-08-07 18:55:59,14.98340195,0.0003206,70.0016,357.1746,248.4353,111.6465,0.00013128,1.474e-05,0.0,0 STARLINK-3086,1 49178U 21082BA  22219.78888085  .00001474  00000-0  13128-3 0  9994,2 49178  70.0016 357.1746 0003206 248.4353 111.6465 14.98340195 50922,6950.161,96.106,574.255,569.798,0.0
49178.0,STARLINK-3086,PAYLOAD,2022-08-08 10:57:20,14.9833464,0.0003174999999999,70.0017,355.4911,247.5547,112.5276,7.8178e-05,8.400000000000001e-06,0.0,0 STARLINK-3086,1 49178U 21082BA  22220.45648302  .00000840  00000-0  78178-4 0  9999,2 49178  70.0017 355.4911 0003175 247.5547 112.5276 14.98334640 51028,6950.179,96.107,574.25,569.837,0.0
49178.0,STARLINK-3086,PAYLOAD,2022-08-08 18:58:00,14.98335278,0.0003168999999999,70.0017,354.6496,247.7754,112.3069,7.7012e-05,8.26e-06,0.0,0 STARLINK-3086,1 49178U 21082BA  22220.79028169  .00000826  00000-0  77012-4 0  9999,2 49178  70.0017 354.6496 0003169 247.7754 112.3069 14.98335278 51073,6950.177,96.107,574.244,569.839,0.0
49178.0,STARLINK-3086,PAYLOAD,2022-08-09 07:47:04,14.98338796,0.0003156,70.0017,353.30300000000005,247.6379,112.4446,5.6237e-05,5.78e-06,0.0,0 STARLINK-3086,1 49178U 21082BA  22221.32435776  .00000578  00000-0  56237-4 0  9995,2 49178  70.0017 353.3030 0003156 247.6379 112.4446 14.98338796 51158,6950.166,96.106,574.224,569.837,0.0
49178.0,STARLINK-3086,PAYLOAD,2022-08-09 15:47:45,14.98330073,0.000323,70.0016,352.4616,247.8168,112.2648,-6.696399999999999e-05,-8.92e-06,0.0,0 STARLINK-3086,1 49178U 21082BA  22221.65816501 -.00000892  00000-0 -66964-4 0  9999,2 49178  70.0016 352.4616 0003230 247.8168 112.2648 14.98330073 51206,6950.193,96.107,574.303,569.813,0.0
49178.0,STARLINK-3086,PAYLOAD,2022-08-10 11:01:22,14.98324575,0.0003341,70.0019,350.44199999999995,248.9131,111.1671,1.1416e-05,4.3e-07,0.0,0 STARLINK-3086,1 49178U 21082BA  22222.45928568  .00000043  00000-0  11416-4 0  9993,2 49178  70.0019 350.4420 0003341 248.9131 111.1671 14.98324575 51322,6950.21,96.107,574.3969999999998,569.753,0.0
49178.0,STARLINK-3086,PAYLOAD,2022-08-10 19:02:03,14.98300728,0.0003191,70.0016,349.6006,250.2827,109.7988,0.0002798,3.245e-05,0.0,0 STARLINK-3086,1 49178U 21082BA  22222.79309787  .00003245  00000-0  27980-3 0  9995,2 49178  70.0016 349.6006 0003191 250.2827 109.7988 14.98300728 51373,6950.283,96.109,574.366,569.931,0.0
49178.0,STARLINK-3086,PAYLOAD,2022-08-11 12:39:31,14.98321045,0.0003281,70.0019,347.7491,249.2728,110.8079,3.4652e-05,3.2e-06,0.0,0 STARLINK-3086,1 49178U 21082BA  22223.52745203  .00000320  00000-0  34652-4 0  9990,2 49178  70.0019 347.7491 0003281 249.2728 110.8079 14.98321045 51482,6950.221,96.108,574.366,569.805,0.0
49178.0,STARLINK-3086,PAYLOAD,2022-08-11 17:27:55,14.98323859,0.0003255,70.0016,347.244,250.9098,109.1708,6.4712e-05,6.79e-06,0.0,0 STARLINK-3086,1 49178U 21082BA  22223.72773074  .00000679  00000-0  64712-4 0  9996,2 49178  70.0016 347.2440 0003255 250.9098 109.1708 14.98323859 51517,6950.212,96.107,574.339,569.815,0.0
49178.0,STARLINK-3086,PAYLOAD,2022-08-12 12:41:32,14.9833212,0.0003343,70.0016,345.2241,248.8448,111.2354,0.00015363,1.741e-05,0.0,0 STARLINK-3086,1 49178U 21082BA  22224.52884495  .00001741  00000-0  15363-3 0  9993,2 49178  70.0016 345.2241 0003343 248.8448 111.2354 14.98332120 51632,6950.186,96.107,574.375,569.7280000000002,0.0
49178.0,STARLINK-3086,PAYLOAD,2022-08-12 17:29:56,14.98331409,0.0003381,70.0015,344.719,248.5716,111.5082,0.00023937,2.764e-05,0.0,0 STARLINK-3086,1 49178U 21082BA  22224.72912371  .00002764  00000-0  23937-3 0  9992,2 49178  70.0015 344.7190 0003381 248.5716 111.5082 14.98331409 51668,6950.189,96.107,574.403,569.7040000000002,0.0
49178.0,STARLINK-3086,PAYLOAD,2022-08-13 14:19:41,14.98328079,0.0003346,70.0015,342.5309,248.6337,111.4466,8.3568e-05,9.04e-06,0.0,0 STARLINK-3086,1 49178U 21082BA  22225.59701182  .00000904  00000-0  83568-4 0  9995,2 49178  70.0015 342.5309 0003346 248.6337 111.4466 14.98328079 51795,6950.199000000001,96.107,574.389,569.738,0.0
49178.0,STARLINK-3086,PAYLOAD,2022-08-13 17:31:57,14.98329469,0.0003343,70.0015,342.1942,248.6756,111.4046,9.6014e-05,1.053e-05,0.0,0 STARLINK-3086,1 49178U 21082BA  22225.73053089  .00001053  00000-0  96014-4 0  9993,2 49178  70.0015 342.1942 0003343 248.6756 111.4046 14.98329469 51817,6950.195,96.107,574.383,569.736,0.0
49178.0,STARLINK-3086,PAYLOAD,2022-08-14 12:45:34,14.98337854,0.0003327,70.0015,340.1745,248.6305,111.45,8.956200000000001e-05,9.76e-06,0.0,0 STARLINK-3086,1 49178U 21082BA  22226.53164388  .00000976  00000-0  89562-4 0  9990,2 49178  70.0015 340.1745 0003327 248.6305 111.4500 14.98337854 51933,6950.169,96.106,574.346,569.721,0.0
49178.0,STARLINK-3086,PAYLOAD,2022-08-14 17:33:57,14.98342471,0.0003307,70.0016,339.6696,248.7477,111.3329,9.2517e-05,1.011e-05,0.0,0 STARLINK-3086,1 49178U 21082BA  22226.73191958  .00001011  00000-0  92517-4 0  9990,2 49178  70.0016 339.6696 0003307 248.7477 111.3329 14.98342471 51963,6950.154,96.106,574.318,569.721,0.0
